RADUGA 1 [-]            
1 08513U 75123A   22245.76627458  .00000014  00000+0  00000+0 0  9998
2 08513   6.3582 287.4989 0008351 216.3393 178.2267  1.00267884180945
RADUGA 2 [-]            
1 09416U 76092A   22245.89885074 -.00000099  00000+0  00000+0 0  9995
2 09416   7.0209 289.4810 0025837 357.5996  94.3393  1.00298770115463
RADUGA 3 [-]            
1 10159U 77071A   22245.68403411 -.00000314  00000+0  00000+0 0  9997
2 10159   7.6366 292.0728 0009883 233.7626 165.8623  1.00217230163178
RADUGA 4 [-]            
1 10987U 78073A   22246.21756565  .00000151  00000+0  00000+0 0  9998
2 10987   8.2597 295.5697 0007529 356.0486 167.5844  1.00287486105722
RADUGA 5 [-]            
1 11343U 79035A   22245.66833796 -.00000182  00000+0  00000+0 0  9999
2 11343   8.7197 298.3280 0007208 174.6273 194.6244  1.00265046115488
RADUGA 6 [-]            
1 11708U 80016A   22245.89162712  .00000019  00000+0  00000+0 0  9991
2 11708   9.0785 301.3882 0003629 200.9778 222.6178  1.00337984108299
RADUGA 7 [-]            
1 12003U 80081A   22245.41510966 -.00000201  00000+0  00000+0 0  9992
2 12003   9.2635 303.3385 0010177 257.6417 262.1339  1.00290063109430
RADUGA 8 [-]            
1 12351U 81027A   22245.68152221 -.00000316  00000+0  00000+0 0  9991
2 12351   9.5940 303.9267 0083195 229.0609 153.6434  1.00408547108661
RADUGA 9 [-]            
1 12618U 81069A   22245.79016142  .00000079  00000+0  00000+0 0  9991
2 12618   9.8126 306.8756 0004946 160.0560 213.3594  1.00342034114462
RADUGA 10 [-]           
1 12897U 81102A   22245.79135786 -.00000171  00000+0  00000+0 0  9998
2 12897   9.8979 307.8511 0006703 180.1375 222.1235  1.00286907103472
RADUGA 11 [-]           
1 13669U 82113A   22245.85766074 -.00000075  00000+0  00000+0 0  9999
2 13669  11.9408 321.5399 0038204 253.5858 115.0116  0.97708602108019
RADUGA 12 [-]           
1 13974U 83028A   22245.89221062 -.00000012  00000+0  00000+0 0  9992
2 13974  11.0396 317.5985 0003233 132.1586 279.7626  1.00283579155501
RADUGA 13 [-]           
1 14307U 83088A   22245.55783813 -.00000207  00000+0  00000+0 0  9995
2 14307  12.1898 323.0889 0014673  48.1093 322.3723  0.98175989105368
RADUGA 14 [-]           
1 14725U 84016A   22245.72493552 -.00000202  00000+0  00000+0 0  9993
2 14725  11.2466 321.3558 0006184 145.2703 222.8739  1.00272714104236
RADUGA 15 [-]           
1 15057U 84063A   22245.58907733 -.00000352  00000+0  00000+0 0  9995
2 15057  11.3689 322.3468 0006708 160.0265 196.1166  1.00308955127222
RADUGA 16 [-]           
1 15946U 85070A   22246.47163907  .00000085  00000+0  00000+0 0  9999
2 15946  11.8290 326.9999 0003201 161.0079 213.1153  1.00288095108351
RADUGA 17 [-]           
1 16250U 85107A   22246.15241227 -.00000252  00000+0  00000+0 0  9993
2 16250  11.9529 328.3869 0015701 180.1968 174.8013  1.00138808137946
RADUGA 18 [-]           
1 16497U 86007A   22246.53646277 -.00000222  00000+0  00000+0 0  9999
2 16497  12.7602 331.0935 0076493 165.9915 210.9653  0.98815528132251
RADUGA 19 [-]           
1 17046U 86082A   22245.70010816 -.00000162  00000+0  00000+0 0  9998
2 17046  13.1897 335.0289 0014715 149.9485 231.7126  0.98460949129291
RADUGA 20 [-]           
1 17611U 87028A   22245.89221080 -.00000071  00000+0  00000+0 0  9993
2 17611  15.2041 338.5490 0031758 138.4699 251.2817  0.95960964125043
RADUGA 21 [-]           
1 18631U 87100A   22246.49213368  .00000113  00000+0  00000+0 0  9990
2 18631  13.2762 335.8783 0004427 133.2580 255.3994  1.00290913127213
RADUGA 22 [-]           
1 19596U 88095A   22245.82141182 -.00000360  00000+0  00000+0 0  9990
2 19596  13.2608 340.1720 0008426 141.0013 283.6555  1.00225447107781
RADUGA 23 [-]           
1 19928U 89030A   22245.85953719  .00000121  00000+0  00000+0 0  9993
2 19928  13.4079 341.9899 0023212 162.1177 188.3508  1.00330819120970
RADUGA-1 1 [-]          
1 20083U 89048A   22244.95724215 -.00000085  00000+0  00000+0 0  9993
2 20083  14.1626 345.0574 0023468 116.5249 249.5695  0.98709449117610
RADUGA 24 [-]           
1 20367U 89098A   22245.89153465  .00000015  00000+0  00000+0 0  9992
2 20367  13.9827 344.2518 0002908 138.3299 243.2321  1.00211949119107
RADUGA 25 [-]           
1 20499U 90016A   22246.14858573 -.00000285  00000+0  00000+0 0  9991
2 20499  13.7524 344.9012 0006774 142.5276 202.0169  1.00189017119088
RADUGA 26 [-]           
1 21016U 90112A   22245.88858356 -.00000027  00000+0  00000+0 0  9997
2 21016  14.0662 348.1592 0008173  98.1301 280.9950  1.00317152116397
RADUGA-1 2 [-]          
1 21038U 90116A   22238.91716123  .00000096  00000+0  00000+0 0  9991
2 21038  14.1096 348.2875 0009744 102.7027 263.2366  1.00267211115978
RADUGA 27 [-]           
1 21132U 91014A   22245.99816955  .00000088  00000+0  00000+0 0  9995
2 21132  14.6141 347.7786 0004848 109.4477 262.1603  1.00282368115430
RADUGA 28 [-]           
1 21821U 91087A   22244.79936132 -.00000298  00000+0  00000+0 0  9991
2 21821  14.3816 351.5092 0009111 126.7318 249.5528  1.00200190112444
RADUGA 29 [-]           
1 22557U 93013A   22245.65616486  .00000127  00000+0  00000+0 0  9992
2 22557  14.5865 355.6778 0008525 114.9720 141.3543  1.00347391107802
RADUGA 30 [-]           
1 22836U 93062A   22246.01155609 -.00000108  00000+0  00000+0 0  9992
2 22836  14.6270 357.6476 0001382  62.9547   0.9407  1.00258777105900
RADUGA-1 3 [-]          
1 22981U 94008A   22245.79635122 -.00000299  00000+0  00000+0 0  9992
2 22981  14.7052 358.7997 0005333 112.3147 255.1751  1.00245106104611
RADUGA 31 [-]           
1 23010U 94012A   22245.94656431  .00000022  00000+0  00000+0 0  9997
2 23010  14.6743 358.7963 0006673 100.1875 282.6056  1.00329223104475
RADUGA 32 [-]           
1 23448U 94087A   22245.89600839 -.00000114  00000+0  00000+0 0  9992
2 23448  14.6567   1.5079 0005272 186.9774 191.9405  1.00261125119011
RADUGA-1 4 [-]          
1 25642U 99010A   22245.65590104  .00000121  00000+0  00000+0 0  9995
2 25642  15.2229  13.0924 0001513 200.5784  42.2918  1.00302539 86077
RADUGA-1 5 [-]          
1 26477U 00049A   22246.00331437  .00000113  00000+0  00000+0 0  9999
2 26477  13.1711  17.9444 0006165  72.5515 296.5569  1.00280281 80624
RADUGA-1 6 [-]          
1 26936U 01045A   22245.81881476 -.00000141  00000+0  00000+0 0  9999
2 26936  13.3365  24.2616 0016773 160.4908 216.2070  0.97745131 75087
RADUGA-1 7 [-]          
1 28194U 04010A   22245.30227238 -.00000363  00000+0  00000+0 0  9992
2 28194  12.0561  31.1018 0002383 138.1581  47.0510  1.00240200 67546
RADUGA-1M 1 [-]         
1 32373U 07058A   22246.07826938 -.00000242  00000+0  00000+0 0  9994
2 32373   7.0631  63.5137 0003949  39.4311 214.4816  0.99397659 54572
RADUGA-1 8 [-]          
1 34264U 09010A   22245.77533735 -.00000221  00000+0  00000+0 0  9998
2 34264   9.3752  53.5073 0014261   6.8492 180.5174  0.99830904 49363
RADUGA-1M 2 [+]         
1 36358U 10002A   22246.18799375 -.00000183  00000+0  00000+0 0  9994
2 36358   0.0439 130.2855 0000348 330.6065  34.0892  1.00261675 46144
RADUGA-1M 3 [+]         
1 39375U 13062A   22244.49496245  .00000157  00000+0  00000+0 0  9997
2 39375   2.4179  88.8875 0002233 160.0478 304.8922  1.00273547 32240
